NORAD_CAT_ID,OBJECT_NAME,OBJECT_TYPE,EPOCH,MEAN_MOTION,ECCENTRICITY,INCLINATION,RA_OF_ASC_NODE,ARG_OF_PERICENTER,MEAN_ANOMALY,BSTAR,MEAN_MOTION_DOT,MEAN_MOTION_DDOT,TLE_LINE0,TLE_LINE1,TLE_LINE2,SEMIMAJOR_AXIS,PERIOD,APOGEE,PERIGEE,DECAYED
55315.0,STARLINK-4623,PAYLOAD,2023-04-30 11:42:36,15.69924523,0.0002868,69.9959,145.0732,259.2605,100.8267,1.9286e-06,1.9e-07,0.0,0 STARLINK-4623,1 55315U 23010AY  23120.48792359  .00000019  00000-0  19286-5 0  9991,2 55315  69.9959 145.0732 0002868 259.2605 100.8267 15.69924523 16651,6737.25,91.724,361.047,357.183,0.0
55315.0,STARLINK-4623,PAYLOAD,2023-05-01 04:31:52,15.69921788,0.0003206,69.9955,143.1027,266.1248,93.9581,1.5931e-06,-2.1e-07,0.0,0 STARLINK-4623,1 55315U 23010AY  23121.18880774 -.00000021  00000-0  15931-5 0  9995,2 55315  69.9955 143.1027 0003206 266.1248  93.9581 15.69921788 16460,6737.258,91.724,361.283,356.963,0.0
55315.0,STARLINK-4623,PAYLOAD,2023-05-01 10:38:53,15.69924005,0.0003168,69.996,142.3871,262.9212,97.1624,4.8557e-06,3.71e-06,0.0,0 STARLINK-4623,1 55315U 23010AY  23121.44367242  .00000371  00000-0  48557-5 0  9991,2 55315  69.9960 142.3871 0003168 262.9212  97.1624 15.69924005 16803,6737.251,91.724,361.251,356.982,0.0
55315.0,STARLINK-4623,PAYLOAD,2023-05-01 13:42:23,15.6992706,0.0003208,69.9963,142.0295,260.3193,99.7641,8.4396e-06,8.02e-06,0.0,0 STARLINK-4623,1 55315U 23010AY  23121.57110284  .00000802  00000-0  84396-5 0  9997,2 55315  69.9963 142.0295 0003208 260.3193  99.7641 15.69927060 16528,6737.243,91.724,361.269,356.946,0.0
55315.0,STARLINK-4623,PAYLOAD,2023-05-02 11:06:56,15.69912114,0.0002891,69.9964,139.5222,273.8142,86.2723,-8.5755e-06,-1.243e-05,0.0,0 STARLINK-4623,1 55315U 23010AY  23122.46315005 -.00001243  00000-0 -85755-5 0  9996,2 55315  69.9964 139.5222 0002891 273.8142  86.2723 15.69912114 16661,6737.285,91.725,361.098,357.203,0.0
55315.0,STARLINK-4623,PAYLOAD,2023-05-02 12:38:40,15.69915613,0.0003281,69.9955,139.3416,268.6603,91.4217,-2.0068e-06,-4.54e-06,0.0,0 STARLINK-4623,1 55315U 23010AY  23122.52686190 -.00000454  00000-0 -20068-5 0  9998,2 55315  69.9955 139.3416 0003281 268.6603  91.4217 15.69915613 16979,6737.275,91.725,361.351,356.93,0.0
55315.0,STARLINK-4623,PAYLOAD,2023-05-03 03:56:12,15.69918306,0.0003305,69.9966,137.5501,264.1393,95.9426,-1.5346e-06,-3.97e-06,0.0,0 STARLINK-4623,1 55315U 23010AY  23123.16402931 -.00000397  00000-0 -15346-5 0  9997,2 55315  69.9966 137.5501 0003305 264.1393  95.9426 15.69918306 16771,6737.268,91.725,361.359,356.906,0.0
55315.0,STARLINK-4623,PAYLOAD,2023-05-03 10:03:12,15.69920496,0.0002867,69.9978,136.8354,254.6684,105.4194,9.9275e-06,9.81e-06,0.0,0 STARLINK-4623,1 55315U 23010AY  23123.41889300  .00000981  00000-0  99275-5 0  9994,2 55315  69.9978 136.8354 0002867 254.6684 105.4194 15.69920496 17112,6737.261,91.724,361.058,357.195,0.0
55315.0,STARLINK-4623,PAYLOAD,2023-05-04 01:20:43,15.69923715,0.0003185,69.9977,135.0432,263.3732,96.7101,5.3071e-06,4.25e-06,0.0,0 STARLINK-4623,1 55315U 23010AY  23124.05605860  .00000425  00000-0  53071-5 0  9999,2 55315  69.9977 135.0432 0003185 263.3732  96.7101 15.69923715 16918,6737.252,91.724,361.263,356.971,0.0
55315.0,STARLINK-4623,PAYLOAD,2023-05-04 10:31:14,15.69917082,0.0002992,69.9985,133.9684,265.113,94.9724,-1.1784e-06,-3.54e-06,0.0,0 STARLINK-4623,1 55315U 23010AY  23124.43836536 -.00000354  00000-0 -11784-5 0  9995,2 55315  69.9985 133.9684 0002992 265.1130  94.9724 15.69917082 16977,6737.271,91.725,361.152,357.12,0.0
55315.0,STARLINK-4623,PAYLOAD,2023-05-04 12:02:59,15.69919067,0.0002684,69.9996,133.7911,255.3625,104.7274,-2.1305e-06,-4.68e-06,0.0,0 STARLINK-4623,1 55315U 23010AY  23124.50208112 -.00000468  00000-0 -21305-5 0  9992,2 55315  69.9996 133.7911 0002684 255.3625 104.7274 15.69919067 17288,6737.266,91.724,360.939,357.322,0.0
55315.0,STARLINK-4623,PAYLOAD,2023-05-05 03:20:30,15.69926866,0.0003163,69.9984,131.9989,264.6263,95.4572,7.6429e-06,7.06e-06,0.0,0 STARLINK-4623,1 55315U 23010AY  23125.13924255  .00000706  00000-0  76429-5 0  9995,2 55315  69.9984 131.9989 0003163 264.6263  95.4572 15.69926866 17084,6737.243,91.724,361.239,356.977,0.0
55315.0,STARLINK-4623,PAYLOAD,2023-05-05 12:31:01,15.69923166,0.0003257,69.9983,130.9241,264.5449,95.5375,3.9722e-06,2.65e-06,0.0,0 STARLINK-4623,1 55315U 23010AY  23125.52154572  .00000265  00000-0  39722-5 0  9990,2 55315  69.9983 130.9241 0003257 264.5449  95.5375 15.69923166 17444,6737.254,91.724,361.313,356.924,0.0
55315.0,STARLINK-4623,PAYLOAD,2023-05-06 03:48:32,15.69967809,0.000334,69.9985,129.1329,272.3562,87.7252,-6.9835e-05,-8.616e-05,0.0,0 STARLINK-4623,1 55315U 23010AY  23126.15870587 -.00008616  00000-0 -69835-4 0  9998,2 55315  69.9985 129.1329 0003340 272.3562  87.7252 15.69967809 17246,6737.126,91.722,361.241,356.741,0.0
55315.0,STARLINK-4623,PAYLOAD,2023-05-06 09:55:33,15.69924793,0.0003186,69.9986,128.4156,256.1781,103.906,1.1246e-05,1.14e-05,0.0,0 STARLINK-4623,1 55315U 23010AY  23126.41357671  .00001140  00000-0  11246-4 0  9997,2 55315  69.9986 128.4156 0003186 256.1781 103.9060 15.69924793 17588,6737.249,91.724,361.261,356.968,0.0
55315.0,STARLINK-4623,PAYLOAD,2023-05-07 02:46:33,15.68423438,0.000296,69.9981,126.4497,35.1784,324.9606,-0.0017463,-0.00193118,0.0,0 STARLINK-4623,1 55315U 23010AY  23127.11566948 -.00193118  00000-0 -17463-2 0  9998,2 55315  69.9981 126.4497 0002960  35.1784 324.9606 15.68423438 17395,6741.548,91.812,365.408,361.417,0.0
55315.0,STARLINK-4623,PAYLOAD,2023-05-07 14:00:01,15.68706355,0.0003406,69.9998,125.1288,274.3659,213.4817,-0.009109,-0.00947085,0.0,0 STARLINK-4623,1 55315U 23010AY  23127.58334491 -.00947085  00000-0 -91090-2 0  9993,2 55315  69.9998 125.1288 0003406 274.3659 213.4817 15.68706355 17478,6740.737,91.795,364.898,360.306,0.0
55315.0,STARLINK-4623,PAYLOAD,2023-05-07 22:00:00,15.68039055,0.0003523,70.0003,124.193,264.8264,304.4768,-0.0089371,-0.00894257,0.0,0 STARLINK-4623,1 55315U 23010AY  23127.91667824 -.00894257  00000-0 -89371-2 0  9990,2 55315  70.0003 124.1930 0003523 264.8264 304.4768 15.68039055  1304,6742.65,91.834,366.89,362.139,0.0
55315.0,STARLINK-4623,PAYLOAD,2023-05-08 06:00:00,15.67366967,0.0003688,70.0005,123.2591,270.6655,19.327,-0.0091041,-0.00887095,0.0,0 STARLINK-4623,1 55315U 23010AY  23128.25001157 -.00887095  00000-0 -91041-2 0  9998,2 55315  70.0005 123.2591 0003688 270.6655  19.3270 15.67366967 17570,6744.577,91.874,368.929,363.955,0.0
55315.0,STARLINK-4623,PAYLOAD,2023-05-08 22:00:00,15.66083391,0.0003624,70.0003,121.3942,268.7613,180.2165,-0.0097188,-0.00911386,0.0,0 STARLINK-4623,1 55315U 23010AY  23128.91667824 -.00911386  00000-0 -97188-2 0  9999,2 55315  70.0003 121.3942 0003624 268.7613 180.2165 15.66083391  1300,6748.262,91.949,372.572,367.681,0.0
55315.0,STARLINK-4623,PAYLOAD,2023-05-09 06:00:00,15.65397478,0.0003585,70.0006,120.4623,272.4219,254.8999,-0.0095521,-0.00862045,0.0,0 STARLINK-4623,1 55315U 23010AY  23129.25001157 -.00862045  00000-0 -95521-2 0  9994,2 55315  70.0006 120.4623 0003585 272.4219 254.8999 15.65397478 17739,6750.233,91.989,374.518,369.678,0.0
55315.0,STARLINK-4623,PAYLOAD,2023-05-09 11:26:11,15.66591489,0.0003341,69.9979,119.8336,326.9897,33.1088,-0.0024047,-0.00245303,0.0,0 STARLINK-4623,1 55315U 23010AY  23129.47651888 -.00245303  00000-0 -24047-2 0  9997,2 55315  69.9979 119.8336 0003341 326.9897  33.1088 15.66591489 17764,6746.803,91.919,370.922,366.413,0.0
55315.0,STARLINK-4623,PAYLOAD,2023-05-10 14:00:01,15.62843158,0.00034,70.0006,116.7465,272.1859,200.5985,-0.011786,-0.00965899,0.0,0 STARLINK-4623,1 55315U 23010AY  23130.58334491 -.00965899  00000-0 -11786-1 0  9993,2 55315  70.0006 116.7465 0003400 272.1859 200.5985 15.62843158  1301,6757.586,92.14,381.749,377.153,0.0
55315.0,STARLINK-4623,PAYLOAD,2023-05-10 22:00:00,15.62181682,0.0003296,70.0008,115.8197,263.1712,284.0245,-0.011603,-0.00930058,0.0,0 STARLINK-4623,1 55315U 23010AY  23130.91667824 -.00930058  00000-0 -11603-1 0  9996,2 55315  70.0008 115.8197 0003296 263.1712 284.0245 15.62181682 17991,6759.493,92.179,383.586,379.13,0.0
55315.0,STARLINK-4623,PAYLOAD,2023-05-11 14:00:01,15.60873675,0.000332,70.0007,113.9686,268.4402,65.2469,-0.012448,-0.00946707,0.0,0 STARLINK-4623,1 55315U 23010AY  23131.58334491 -.00946707  00000-0 -12448-1 0  9997,2 55315  70.0007 113.9686 0003320 268.4402  65.2469 15.60873675  1307,6763.269,92.256,387.38,382.889,0.0
55315.0,STARLINK-4623,PAYLOAD,2023-05-11 22:00:00,15.60226207,0.0003393,70.0009,113.0448,266.767,138.9812,-0.012558,-0.00932931,0.0,0 STARLINK-4623,1 55315U 23010AY  23131.91667824 -.00932931  00000-0 -12558-1 0  9999,2 55315  70.0009 113.0448 0003393 266.7670 138.9812 15.60226207  1307,6765.14,92.294,389.301,384.71,0.0
55315.0,STARLINK-4623,PAYLOAD,2023-05-12 06:00:00,15.59529035,0.0003239,70.0007,112.1217,274.8427,202.2099,-0.011991,-0.00872816,0.0,0 STARLINK-4623,1 55315U 23010AY  23132.25001157 -.00872816  00000-0 -11991-1 0  9993,2 55315  70.0007 112.1217 0003239 274.8427 202.2099 15.59529035 18200,6767.156,92.336,391.213,386.829,0.0
55315.0,STARLINK-4623,PAYLOAD,2023-05-12 12:00:00,15.59085941,0.0003338,70.0002,111.4296,275.8838,164.1034,-0.013348,-0.0094777,0.0,0 STARLINK-4623,1 55315U 23010AY  23132.50001157 -.00947770  00000-0 -13348-1 0  9991,2 55315  70.0002 111.4296 0003338 275.8838 164.1034 15.59085941  1302,6768.438,92.362,392.563,388.044,0.0
55315.0,STARLINK-4623,PAYLOAD,2023-05-12 22:00:00,15.58269057,0.0003357,70.0005,110.2776,264.8061,352.4514,-0.013505,-0.00931285,0.0,0 STARLINK-4623,1 55315U 23010AY  23132.91667824 -.00931285  00000-0 -13505-1 0  9994,2 55315  70.0005 110.2776 0003357 264.8061 352.4514 15.58269057 18306,6770.804,92.41,394.941,390.396,0.0
55315.0,STARLINK-4623,PAYLOAD,2023-05-13 14:00:01,15.56949324,0.0003336,70.0002,108.4373,270.8173,123.5476,-0.014136,-0.00927889,0.0,0 STARLINK-4623,1 55315U 23010AY  23133.58334491 -.00927889  00000-0 -14136-1 0  9995,2 55315  70.0002 108.4373 0003336 270.8173 123.5476 15.56949324  1309,6774.629,92.489,398.754,394.234,0.0
